{
  "norad_id": 68256,
  "name": "STARLINK-36333",
  "history": [
    {
      "epoch": "2026-04-13T00:00:02.000160Z",
      "apogee_km": 344.78889441424417,
      "perigee_km": 343.4724055176748,
      "latitude_deg": -51.652742031911465,
      "longitude_deg": -170.17034378649214,
      "height_km": 362.63742333601044,
      "semi_major_axis_km": 6722.267649965959,
      "eccentricity": 9.792e-05,
      "inclination_deg": 53.1594,
      "raan_deg": 140.6901,
      "arg_perigee_deg": 95.8475,
      "mean_anomaly_deg": 162.0328,
      "mean_motion_rev_day": 15.75175912
    },
    {
      "epoch": "2026-04-14T19:04:07.574304Z",
      "apogee_km": 344.9122621426359,
      "perigee_km": 342.88220780367374,
      "latitude_deg": -1.033690390170465e-06,
      "longitude_deg": 2.7807005871552275,
      "height_km": 344.8708235508751,
      "semi_major_axis_km": 6722.0342349731545,
      "eccentricity": 0.000151,
      "inclination_deg": 53.1587,
      "raan_deg": 131.7781,
      "arg_perigee_deg": 93.3033,
      "mean_anomaly_deg": 266.816,
      "mean_motion_rev_day": 15.75257957
    },
    {
      "epoch": "2026-04-15T13:20:28.026816Z",
      "apogee_km": 344.466728589985,
      "perigee_km": 342.7419297649176,
      "latitude_deg": 2.616418952718711e-05,
      "longitude_deg": 84.15988480861598,
      "height_km": 345.21042518308207,
      "semi_major_axis_km": 6721.741329177451,
      "eccentricity": 0.0001283,
      "inclination_deg": 53.1586,
      "raan_deg": 127.9929,
      "arg_perigee_deg": 143.1375,
      "mean_anomaly_deg": 216.9734,
      "mean_motion_rev_day": 15.75360923
    },
    {
      "epoch": "2026-04-16T18:16:44.453568Z",
      "apogee_km": 350.4925365210029,
      "perigee_km": 345.20053267598087,
      "latitude_deg": -9.231509484058463e-06,
      "longitude_deg": 2.913878795007212,
      "height_km": 346.1289426952608,
      "semi_major_axis_km": 6725.983534598491,
      "eccentricity": 0.0003934,
      "inclination_deg": 53.1584,
      "raan_deg": 122.0038,
      "arg_perigee_deg": 354.6705,
      "mean_anomaly_deg": 5.4272,
      "mean_motion_rev_day": 15.73870743
    },
    {
      "epoch": "2026-04-17T22:00:01.999584Z",
      "apogee_km": 363.69466681457925,
      "perigee_km": 362.2883325869716,
      "latitude_deg": 42.088108726293214,
      "longitude_deg": -17.464486470927007,
      "height_km": 366.37222758899287,
      "semi_major_axis_km": 6741.128499700775,
      "eccentricity": 0.00010431,
      "inclination_deg": 53.1591,
      "raan_deg": 116.2969,
      "arg_perigee_deg": 79.3674,
      "mean_anomaly_deg": 337.285,
      "mean_motion_rev_day": 15.68569815
    },
    {
      "epoch": "2026-04-18T20:00:01.000224Z",
      "apogee_km": 375.01541648980674,
      "perigee_km": 373.195011988847,
      "latitude_deg": -7.757598827821692,
      "longitude_deg": 150.672456585838,
      "height_km": 376.6194735451734,
      "semi_major_axis_km": 6752.242214239326,
      "eccentricity": 0.0001348,
      "inclination_deg": 53.1597,
      "raan_deg": 111.7983,
      "arg_perigee_deg": 82.2946,
      "mean_anomaly_deg": 107.2408,
      "mean_motion_rev_day": 15.64698776
    },
    {
      "epoch": "2026-04-19T20:00:01.999008Z",
      "apogee_km": 386.85985885094215,
      "perigee_km": 385.4799402434337,
      "latitude_deg": 43.049856116925795,
      "longitude_deg": 3.0828287769035563,
      "height_km": 389.7537398418785,
      "semi_major_axis_km": 6764.306899547188,
      "eccentricity": 0.000102,
      "inclination_deg": 53.1596,
      "raan_deg": 106.9211,
      "arg_perigee_deg": 75.8382,
      "mean_anomaly_deg": 342.4588,
      "mean_motion_rev_day": 15.60514494
    },
    {
      "epoch": "2026-04-20T14:00:03.000384Z",
      "apogee_km": 395.89921441849856,
      "perigee_km": 394.47031445907214,
      "latitude_deg": -38.06182516462985,
      "longitude_deg": 8.912883255053343,
      "height_km": 408.1028461092389,
      "semi_major_axis_km": 6773.321764438785,
      "eccentricity": 0.00010548,
      "inclination_deg": 53.16,
      "raan_deg": 103.2841,
      "arg_perigee_deg": 90.2973,
      "mean_anomaly_deg": 219.6479,
      "mean_motion_rev_day": 15.57400111
    },
    {
      "epoch": "2026-04-21T20:00:01.999008Z",
      "apogee_km": 411.3331883869778,
      "perigee_km": 410.49270400364003,
      "latitude_deg": 48.78527134188258,
      "longitude_deg": 69.072933655491,
      "height_km": 416.03580383331916,
      "semi_major_axis_km": 6789.049946195309,
      "eccentricity": 6.19e-05,
      "inclination_deg": 53.1606,
      "raan_deg": 97.2573,
      "arg_perigee_deg": 98.6583,
      "mean_anomaly_deg": 11.6565,
      "mean_motion_rev_day": 15.51991207
    },
    {
      "epoch": "2026-04-22T20:00:03.000384Z",
      "apogee_km": 419.4705864907273,
      "perigee_km": 418.3381993946632,
      "latitude_deg": -46.95931303542144,
      "longitude_deg": -111.35517170955417,
      "height_km": 435.4131245752564,
      "semi_major_axis_km": 6797.041392942695,
      "eccentricity": 8.33e-05,
      "inclination_deg": 53.1596,
      "raan_deg": 92.4684,
      "arg_perigee_deg": 83.7685,
      "mean_anomaly_deg": 210.6668,
      "mean_motion_rev_day": 15.49254941
    },
    {
      "epoch": "2026-04-23T14:00:04.000032Z",
      "apogee_km": 419.20094848324607,
      "perigee_km": 417.9774018371936,
      "latitude_deg": 15.904043673338348,
      "longitude_deg": -165.0176505357952,
      "height_km": 418.7127421918906,
      "semi_major_axis_km": 6796.726175160219,
      "eccentricity": 9.001e-05,
      "inclination_deg": 53.1595,
      "raan_deg": 88.8837,
      "arg_perigee_deg": 79.4102,
      "mean_anomaly_deg": 80.5803,
      "mean_motion_rev_day": 15.49362719
    },
    {
      "epoch": "2026-04-24T20:00:01.999008Z",
      "apogee_km": 426.93701637181584,
      "perigee_km": 425.4672791159028,
      "latitude_deg": -47.6165981623737,
      "longitude_deg": -124.68240994774932,
      "height_km": 443.2202027990025,
      "semi_major_axis_km": 6804.339147743859,
      "eccentricity": 0.000108,
      "inclination_deg": 53.1603,
      "raan_deg": 82.9099,
      "arg_perigee_deg": 120.1561,
      "mean_anomaly_deg": 172.8789,
      "mean_motion_rev_day": 15.46763211
    },
    {
      "epoch": "2026-04-25T20:00:01.000224Z",
      "apogee_km": 439.180501697786,
      "perigee_km": 437.94122602613515,
      "latitude_deg": 52.7508106548476,
      "longitude_deg": 25.849996932513015,
      "height_km": 444.40180176692496,
      "semi_major_axis_km": 6816.69786386196,
      "eccentricity": 9.09e-05,
      "inclination_deg": 53.1599,
      "raan_deg": 78.1617,
      "arg_perigee_deg": 111.3031,
      "mean_anomaly_deg": 345.6702,
      "mean_motion_rev_day": 15.42558681
    },
    {
      "epoch": "2026-04-26T22:00:00.999936Z",
      "apogee_km": 452.74670315167714,
      "perigee_km": 451.0794879233554,
      "latitude_deg": -10.082100498138873,
      "longitude_deg": -119.4785098620617,
      "height_km": 455.27087690010706,
      "semi_major_axis_km": 6830.0500955375155,
      "eccentricity": 0.00012205,
      "inclination_deg": 53.1596,
      "raan_deg": 73.0521,
      "arg_perigee_deg": 123.6586,
      "mean_anomaly_deg": 223.8905,
      "mean_motion_rev_day": 15.38037514
    },
    {
      "epoch": "2026-04-27T20:00:03.000384Z",
      "apogee_km": 464.5696178339422,
      "perigee_km": 462.586888753538,
      "latitude_deg": 15.655546376927578,
      "longitude_deg": -75.02233663650573,
      "height_km": 464.05595166285326,
      "semi_major_axis_km": 6841.71525329374,
      "eccentricity": 0.0001449,
      "inclination_deg": 53.159,
      "raan_deg": 68.7554,
      "arg_perigee_deg": 125.4031,
      "mean_anomaly_deg": 254.2967,
      "mean_motion_rev_day": 15.34105649
    }
  ]
}